{"type": "FeatureCollection", "features": [{"type": "Feature", "properties": {"norad_id": 28890, "name": "BEIJING 1", "group": "dmc", "lat": 10.417185873850272, "lon": -54.564575788023205, "alt_km": 677.6765485113629, "timestamp": "2025-12-22T08:58:20.009964+00:00", "meta": {"OBJECT_NAME": "BEIJING 1", "OBJECT_ID": "2005-043A", "EPOCH": "2025-12-22T04:55:12.660096", "MEAN_MOTION": 14.63373633, "ECCENTRICITY": 0.0015768, "INCLINATION": 98.2662, "RA_OF_ASC_NODE": 123.7347, "ARG_OF_PERICENTER": 113.3841, "MEAN_ANOMALY": 246.9021, "EPHEMERIS_TYPE": 0, "CLASSIFICATION_TYPE": "U", "NORAD_CAT_ID": 28890, "ELEMENT_SET_NO": 999, "REV_AT_EPOCH": 7476, "BSTAR": 4.5718e-05, "MEAN_MOTION_DOT": 1.88e-06, "MEAN_MOTION_DDOT": 0}, "tle": {"line1": "1 28890U 05043A   25356.20500764  .00000188  00000+0  45718-4 0  9999", "line2": "2 28890  98.2662 123.7347 0015768 113.3841 246.9021 14.63373633 74764"}}, "geometry": {"type": "Point", "coordinates": [-54.564575788023205, 10.417185873850272]}}, {"type": "Feature", "properties": {"norad_id": 33320, "name": "HUANJING 1A (HJ-1A)", "group": "dmc", "lat": 9.628540128625167, "lon": 165.5774770371174, "alt_km": 633.44415794008, "timestamp": "2025-12-22T08:58:20.009988+00:00", "meta": {"OBJECT_NAME": "HUANJING 1A (HJ-1A)", "OBJECT_ID": "2008-041A", "EPOCH": "2025-12-22T04:58:12.442080", "MEAN_MOTION": 14.8342319, "ECCENTRICITY": 0.0019446, "INCLINATION": 97.654, "RA_OF_ASC_NODE": 344.1104, "ARG_OF_PERICENTER": 4.549, "MEAN_ANOMALY": 355.5897, "EPHEMERIS_TYPE": 0, "CLASSIFICATION_TYPE": "U", "NORAD_CAT_ID": 33320, "ELEMENT_SET_NO": 999, "REV_AT_EPOCH": 93216, "BSTAR": 0.00022011, "MEAN_MOTION_DOT": 1.761e-05, "MEAN_MOTION_DDOT": 0}, "tle": {"line1": "1 33320U 08041A   25356.20708845  .00001761  00000+0  22011-3 0  9992", "line2": "2 33320  97.6540 344.1104 0019446   4.5490 355.5897 14.83423190932165"}}, "geometry": {"type": "Point", "coordinates": [165.5774770371174, 9.628540128625167]}}, {"type": "Feature", "properties": {"norad_id": 33321, "name": "HUANJING 1B (HJ-1B)", "group": "dmc", "lat": 10.805547456714217, "lon": -13.526170030063959, "alt_km": 599.8729830967268, "timestamp": "2025-12-22T08:58:20.010002+00:00", "meta": {"OBJECT_NAME": "HUANJING 1B (HJ-1B)", "OBJECT_ID": "2008-041B", "EPOCH": "2025-12-22T05:41:04.119072", "MEAN_MOTION": 14.82844033, "ECCENTRICITY": 0.0037962, "INCLINATION": 97.6398, "RA_OF_ASC_NODE": 347.8109, "ARG_OF_PERICENTER": 45.6796, "MEAN_ANOMALY": 314.752, "EPHEMERIS_TYPE": 0, "CLASSIFICATION_TYPE": "U", "NORAD_CAT_ID": 33321, "ELEMENT_SET_NO": 999, "REV_AT_EPOCH": 93218, "BSTAR": 0.00011491, "MEAN_MOTION_DOT": 8.9e-06, "MEAN_MOTION_DDOT": 0}, "tle": {"line1": "1 33321U 08041B   25356.23685323  .00000890  00000+0  11491-3 0  9993", "line2": "2 33321  97.6398 347.8109 0037962  45.6796 314.7520 14.82844033932184"}}, "geometry": {"type": "Point", "coordinates": [-13.526170030063959, 10.805547456714217]}}, {"type": "Feature", "properties": {"norad_id": 33446, "name": "YAOGAN-4", "group": "dmc", "lat": -78.5350112338455, "lon": -30.27934686881269, "alt_km": 619.1578406036115, "timestamp": "2025-12-22T08:58:20.010014+00:00", "meta": {"OBJECT_NAME": "YAOGAN-4", "OBJECT_ID": "2008-061A", "EPOCH": "2025-12-21T18:45:45.373824", "MEAN_MOTION": 14.82706695, "ECCENTRICITY": 0.0013067, "INCLINATION": 97.9195, "RA_OF_ASC_NODE": 285.7927, "ARG_OF_PERICENTER": 291.438, "MEAN_ANOMALY": 68.5439, "EPHEMERIS_TYPE": 0, "CLASSIFICATION_TYPE": "U", "NORAD_CAT_ID": 33446, "ELEMENT_SET_NO": 999, "REV_AT_EPOCH": 91937, "BSTAR": 0.0001402, "MEAN_MOTION_DOT": 1.079e-05, "MEAN_MOTION_DDOT": 0}, "tle": {"line1": "1 33446U 08061A   25355.78177516  .00001079  00000+0  14020-3 0  9993", "line2": "2 33446  97.9195 285.7927 0013067 291.4380  68.5439 14.82706695919378"}}, "geometry": {"type": "Point", "coordinates": [-30.27934686881269, -78.5350112338455]}}, {"type": "Feature", "properties": {"norad_id": 35681, "name": "DEIMOS-1", "group": "dmc", "lat": 39.38439348113164, "lon": -17.081805891230736, "alt_km": 641.8341478457505, "timestamp": "2025-12-22T08:58:20.010025+00:00", "meta": {"OBJECT_NAME": "DEIMOS-1", "OBJECT_ID": "2009-041A", "EPOCH": "2025-12-22T05:04:59.209824", "MEAN_MOTION": 14.74964719, "ECCENTRICITY": 0.000257, "INCLINATION": 97.7148, "RA_OF_ASC_NODE": 156.3742, "ARG_OF_PERICENTER": 64.7665, "MEAN_ANOMALY": 295.3811, "EPHEMERIS_TYPE": 0, "CLASSIFICATION_TYPE": "U", "NORAD_CAT_ID": 35681, "ELEMENT_SET_NO": 999, "REV_AT_EPOCH": 88079, "BSTAR": 6.6889e-05, "MEAN_MOTION_DOT": 4.02e-06, "MEAN_MOTION_DDOT": 0}, "tle": {"line1": "1 35681U 09041A   25356.21179641  .00000402  00000+0  66889-4 0  9995", "line2": "2 35681  97.7148 156.3742 0002570  64.7665 295.3811 14.74964719880790"}}, "geometry": {"type": "Point", "coordinates": [-17.081805891230736, 39.38439348113164]}}, {"type": "Feature", "properties": {"norad_id": 35683, "name": "UK-DMC 2", "group": "dmc", "lat": 1.3211718101903709, "lon": -48.8128282455332, "alt_km": 645.8834855891882, "timestamp": "2025-12-22T08:58:20.010036+00:00", "meta": {"OBJECT_NAME": "UK-DMC 2", "OBJECT_ID": "2009-041C", "EPOCH": "2025-12-22T04:54:39.594816", "MEAN_MOTION": 14.75638677, "ECCENTRICITY": 0.0001537, "INCLINATION": 97.8568, "RA_OF_ASC_NODE": 130.8403, "ARG_OF_PERICENTER": 93.5016, "MEAN_ANOMALY": 266.6369, "EPHEMERIS_TYPE": 0, "CLASSIFICATION_TYPE": "U", "NORAD_CAT_ID": 35683, "ELEMENT_SET_NO": 999, "REV_AT_EPOCH": 88046, "BSTAR": 8.3277e-05, "MEAN_MOTION_DOT": 5.19e-06, "MEAN_MOTION_DDOT": 0}, "tle": {"line1": "1 35683U 09041C   25356.20462494  .00000519  00000+0  83277-4 0  9996", "line2": "2 35683  97.8568 130.8403 0001537  93.5016 266.6369 14.75638677880467"}}, "geometry": {"type": "Point", "coordinates": [-48.8128282455332, 1.3211718101903709]}}, {"type": "Feature", "properties": {"norad_id": 40715, "name": "DMC3-FM1", "group": "dmc", "lat": -27.13232582191995, "lon": 39.25567568961914, "alt_km": 617.2008662346034, "timestamp": "2025-12-22T08:58:20.010048+00:00", "meta": {"OBJECT_NAME": "DMC3-FM1", "OBJECT_ID": "2015-032A", "EPOCH": "2025-12-22T04:48:29.471904", "MEAN_MOTION": 14.8545682, "ECCENTRICITY": 0.0004071, "INCLINATION": 97.6686, "RA_OF_ASC_NODE": 223.0477, "ARG_OF_PERICENTER": 282.7159, "MEAN_ANOMALY": 77.3601, "EPHEMERIS_TYPE": 0, "CLASSIFICATION_TYPE": "U", "NORAD_CAT_ID": 40715, "ELEMENT_SET_NO": 999, "REV_AT_EPOCH": 56363, "BSTAR": 0.00014378, "MEAN_MOTION_DOT": 1.188e-05, "MEAN_MOTION_DDOT": 0}, "tle": {"line1": "1 40715U 15032A   25356.20034111  .00001188  00000+0  14378-3 0  9994", "line2": "2 40715  97.6686 223.0477 0004071 282.7159  77.3601 14.85456820563632"}}, "geometry": {"type": "Point", "coordinates": [39.25567568961914, -27.13232582191995]}}, {"type": "Feature", "properties": {"norad_id": 40716, "name": "DMC3-FM2", "group": "dmc", "lat": 81.82263912551066, "lon": 154.88326085868866, "alt_km": 607.7276398804588, "timestamp": "2025-12-22T08:58:20.010058+00:00", "meta": {"OBJECT_NAME": "DMC3-FM2", "OBJECT_ID": "2015-032B", "EPOCH": "2025-12-22T05:20:52.012608", "MEAN_MOTION": 14.8545721, "ECCENTRICITY": 0.0004678, "INCLINATION": 97.6746, "RA_OF_ASC_NODE": 224.52, "ARG_OF_PERICENTER": 289.8528, "MEAN_ANOMALY": 70.2184, "EPHEMERIS_TYPE": 0, "CLASSIFICATION_TYPE": "U", "NORAD_CAT_ID": 40716, "ELEMENT_SET_NO": 999, "REV_AT_EPOCH": 56363, "BSTAR": 6.1887e-05, "MEAN_MOTION_DOT": 4.82e-06, "MEAN_MOTION_DDOT": 0}, "tle": {"line1": "1 40716U 15032B   25356.22282422  .00000482  00000+0  61887-4 0  9991", "line2": "2 40716  97.6746 224.5200 0004678 289.8528  70.2184 14.85457210563633"}}, "geometry": {"type": "Point", "coordinates": [154.88326085868866, 81.82263912551066]}}, {"type": "Feature", "properties": {"norad_id": 40717, "name": "DMC3-FM3", "group": "dmc", "lat": -28.641539495659643, "lon": -129.4683620673626, "alt_km": 615.9355145972704, "timestamp": "2025-12-22T08:58:20.010068+00:00", "meta": {"OBJECT_NAME": "DMC3-FM3", "OBJECT_ID": "2015-032C", "EPOCH": "2025-12-22T04:15:07.474176", "MEAN_MOTION": 14.85440626, "ECCENTRICITY": 0.0004097, "INCLINATION": 97.6799, "RA_OF_ASC_NODE": 226.1155, "ARG_OF_PERICENTER": 290.9841, "MEAN_ANOMALY": 69.0936, "EPHEMERIS_TYPE": 0, "CLASSIFICATION_TYPE": "U", "NORAD_CAT_ID": 40717, "ELEMENT_SET_NO": 999, "REV_AT_EPOCH": 56363, "BSTAR": 9.3783e-06, "MEAN_MOTION_DOT": 2.9e-07, "MEAN_MOTION_DDOT": 0}, "tle": {"line1": "1 40717U 15032C   25356.17716984  .00000029  00000+0  93783-5 0  9999", "line2": "2 40717  97.6799 226.1155 0004097 290.9841  69.0936 14.85440626563639"}}, "geometry": {"type": "Point", "coordinates": [-129.4683620673626, -28.641539495659643]}}]}